start=new Date('2022-01-03T00:00:00.000Z').valueOf();
sats=[{"NORAD_CAT_ID":"46146","REF_FRAME":"TEME","EPHEMERIS_TYPE":"0","TIME_SYSTEM":"UTC","PERIOD":"95.592","RA_OF_ASC_NODE":"330.7296","SEMIMAJOR_AXIS":"6925.353","OBJECT_ID":"2020-057AF","EPOCH":"2022-01-02T21:08:45.665376","DECAY_DATE":null,"MEAN_MOTION_DOT":"-0.00000792","BSTAR":"-0.00003425800000","ECCENTRICITY":"0.00014080","ELEMENT_SET_NO":"999","PERIAPSIS":"546.243","OBJECT_TYPE":"PAYLOAD","RCS_SIZE":"LARGE","CENTER_NAME":"EARTH","GP_ID":"192941477","FILE":"3255249","OBJECT_NAME":"STARLINK-1608","MEAN_ANOMALY":"290.9131","MEAN_ELEMENT_THEORY":"SGP4","LAUNCH_DATE":"2020-08-18","SITE":"AFETR","TLE_LINE1":"1 46146U 20057AF  22002.88108409 -.00000792  00000-0 -34258-4 0  9995","COUNTRY_CODE":"US","CLASSIFICATION_TYPE":"U","MEAN_MOTION_DDOT":"0.0000000000000","REV_AT_EPOCH":"7594","ARG_OF_PERICENTER":"69.2009","MEAN_MOTION":"15.06398668","INCLINATION":"53.0551","APOAPSIS":"548.193","TLE_LINE2":"2 46146  53.0551 330.7296 0001408  69.2009 290.9131 15.06398668 75943"},{"BSTAR":"0.00011983000000","MEAN_MOTION_DOT":"0.00001504","ECCENTRICITY":"0.00016860","OBJECT_TYPE":"PAYLOAD","PERIAPSIS":"546.058","ELEMENT_SET_NO":"999","REF_FRAME":"TEME","NORAD_CAT_ID":"46147","EPHEMERIS_TYPE":"0","EPOCH":"2022-01-02T09:33:26.480160","DECAY_DATE":null,"SEMIMAJOR_AXIS":"6925.361","PERIOD":"95.592","RA_OF_ASC_NODE":"332.8910","TIME_SYSTEM":"UTC","OBJECT_ID":"2020-057AG","MEAN_MOTION_DDOT":"0.0000000000000","ARG_OF_PERICENTER":"63.0352","REV_AT_EPOCH":"7712","COUNTRY_CODE":"US","CLASSIFICATION_TYPE":"U","APOAPSIS":"548.394","TLE_LINE2":"2 46147  53.0542 332.8910 0001686  63.0352 297.0809 15.06395920 77121","INCLINATION":"53.0542","MEAN_MOTION":"15.06395920","GP_ID":"192918237","FILE":"3255248","OBJECT_NAME":"STARLINK-1611","RCS_SIZE":"LARGE","CENTER_NAME":"EARTH","SITE":"AFETR","TLE_LINE1":"1 46147U 20057AG  22002.39822315  .00001504  00000-0  11983-3 0  9990","LAUNCH_DATE":"2020-08-18","MEAN_ELEMENT_THEORY":"SGP4","MEAN_ANOMALY":"297.0809"},{"OBJECT_TYPE":"PAYLOAD","PERIAPSIS":"545.943","ELEMENT_SET_NO":"999","ECCENTRICITY":"0.00018220","MEAN_MOTION_DOT":"0.00000399","BSTAR":"0.00004568500000","EPOCH":"2022-01-02T04:54:46.309824","DECAY_DATE":null,"RA_OF_ASC_NODE":"313.7537","PERIOD":"95.592","SEMIMAJOR_AXIS":"6925.340","TIME_SYSTEM":"UTC","OBJECT_ID":"2020-057AH","REF_FRAME":"TEME","NORAD_CAT_ID":"46148","EPHEMERIS_TYPE":"0","APOAPSIS":"548.467","TLE_LINE2":"2 46148  53.0546 313.7537 0001822  57.7708 302.3458 15.06402857 76112","INCLINATION":"53.0546","MEAN_MOTION":"15.06402857","MEAN_MOTION_DDOT":"0.0000000000000","ARG_OF_PERICENTER":"57.7708","REV_AT_EPOCH":"7611","COUNTRY_CODE":"US","CLASSIFICATION_TYPE":"U","SITE":"AFETR","TLE_LINE1":"1 46148U 20057AH  22002.20470266  .00000399  00000-0  45685-4 0  9993","LAUNCH_DATE":"2020-08-18","MEAN_ELEMENT_THEORY":"SGP4","MEAN_ANOMALY":"302.3458","GP_ID":"192916985","FILE":"3255248","OBJECT_NAME":"STARLINK-1616","RCS_SIZE":"LARGE","CENTER_NAME":"EARTH"},{"GP_ID":"192941728","FILE":"3255249","OBJECT_NAME":"STARLINK-1620","RCS_SIZE":"LARGE","CENTER_NAME":"EARTH","SITE":"AFETR","TLE_LINE1":"1 46149U 20057AJ  22002.88292215  .00001504  00000-0  11982-3 0  9995","MEAN_ANOMALY":"313.1442","MEAN_ELEMENT_THEORY":"SGP4","LAUNCH_DATE":"2020-08-18","MEAN_MOTION_DDOT":"0.0000000000000","REV_AT_EPOCH":"7749","ARG_OF_PERICENTER":"46.9734","COUNTRY_CODE":"US","CLASSIFICATION_TYPE":"U","APOAPSIS":"548.748","TLE_LINE2":"2 46149  53.0558 310.7265 0002242  46.9734 313.1442 15.06405987 77499","MEAN_MOTION":"15.06405987","INCLINATION":"53.0558","NORAD_CAT_ID":"46149","REF_FRAME":"TEME","EPHEMERIS_TYPE":"0","EPOCH":"2022-01-02T21:11:24.473760","DECAY_DATE":null,"TIME_SYSTEM":"UTC","PERIOD":"95.592","RA_OF_ASC_NODE":"310.7265","SEMIMAJOR_AXIS":"6925.330","OBJECT_ID":"2020-057AJ","MEAN_MOTION_DOT":"0.00001504","BSTAR":"0.00011982000000","ECCENTRICITY":"0.00022420","OBJECT_TYPE":"PAYLOAD","PERIAPSIS":"545.643","ELEMENT_SET_NO":"999"},{"BSTAR":"0.00010827000000","MEAN_MOTION_DOT":"0.00001331","ECCENTRICITY":"0.00016260","ELEMENT_SET_NO":"999","OBJECT_TYPE":"PAYLOAD","PERIAPSIS":"546.115","REF_FRAME":"TEME","NORAD_CAT_ID":"46150","EPHEMERIS_TYPE":"0","RA_OF_ASC_NODE":"333.4200","PERIOD":"95.593","SEMIMAJOR_AXIS":"6925.376","TIME_SYSTEM":"UTC","OBJECT_ID":"2020-057AK","EPOCH":"2022-01-02T06:43:36.257664","DECAY_DATE":null,"COUNTRY_CODE":"US","CLASSIFICATION_TYPE":"U","MEAN_MOTION_DDOT":"0.0000000000000","ARG_OF_PERICENTER":"58.3399","REV_AT_EPOCH":"7585","INCLINATION":"53.0557","MEAN_MOTION":"15.06390976","APOAPSIS":"548.367","TLE_LINE2":"2 46150  53.0557 333.4200 0001626  58.3399 301.7749 15.06390976 75852","RCS_SIZE":"LARGE","CENTER_NAME":"EARTH","GP_ID":"192917987","FILE":"3255248","OBJECT_NAME":"STARLINK-1629","LAUNCH_DATE":"2020-08-18","MEAN_ELEMENT_THEORY":"SGP4","MEAN_ANOMALY":"301.7749","SITE":"AFETR","TLE_LINE1":"1 46150U 20057AK  22002.28028076  .00001331  00000-0  10827-3 0  9998"},{"APOAPSIS":"548.767","TLE_LINE2":"2 46151  53.0540 313.5366 0002202  60.3952 299.7256 15.06390665 76121","INCLINATION":"53.0540","MEAN_MOTION":"15.06390665","MEAN_MOTION_DDOT":"0.0000000000000","REV_AT_EPOCH":"7612","ARG_OF_PERICENTER":"60.3952","COUNTRY_CODE":"US","CLASSIFICATION_TYPE":"U","SITE":"AFETR","TLE_LINE1":"1 46151U 20057AL  22002.25632676  .00016086  00000-0  10966-2 0  9999","MEAN_ELEMENT_THEORY":"SGP4","MEAN_ANOMALY":"299.7256","LAUNCH_DATE":"2020-08-18","FILE":"3255248","GP_ID":"192917738","OBJECT_NAME":"STARLINK-1631","RCS_SIZE":"LARGE","CENTER_NAME":"EARTH","PERIAPSIS":"545.717","OBJECT_TYPE":"PAYLOAD","ELEMENT_SET_NO":"999","BSTAR":"0.00109660000000","MEAN_MOTION_DOT":"0.00016086","ECCENTRICITY":"0.00022020","EPOCH":"2022-01-02T06:09:06.632064","DECAY_DATE":null,"TIME_SYSTEM":"UTC","RA_OF_ASC_NODE":"313.5366","PERIOD":"95.593","SEMIMAJOR_AXIS":"6925.377","OBJECT_ID":"2020-057AL","NORAD_CAT_ID":"46151","REF_FRAME":"TEME","EPHEMERIS_TYPE":"0"},{"ELEMENT_SET_NO":"999","PERIAPSIS":"546.035","OBJECT_TYPE":"PAYLOAD","MEAN_MOTION_DOT":"0.00000580","ECCENTRICITY":"0.00017380","BSTAR":"0.00005788300000","OBJECT_ID":"2020-057AM","RA_OF_ASC_NODE":"333.6097","PERIOD":"95.593","SEMIMAJOR_AXIS":"6925.374","TIME_SYSTEM":"UTC","DECAY_DATE":null,"EPOCH":"2022-01-02T05:45:12.821472","EPHEMERIS_TYPE":"0","REF_FRAME":"TEME","NORAD_CAT_ID":"46152","MEAN_MOTION":"15.06391683","INCLINATION":"53.0558","TLE_LINE2":"2 46152  53.0558 333.6097 0001738  55.7286 304.3867 15.06391683 75846","APOAPSIS":"548.443","CLASSIFICATION_TYPE":"U","COUNTRY_CODE":"US","ARG_OF_PERICENTER":"55.7286","REV_AT_EPOCH":"7584","MEAN_MOTION_DDOT":"0.0000000000000","LAUNCH_DATE":"2020-08-18","MEAN_ANOMALY":"304.3867","MEAN_ELEMENT_THEORY":"SGP4","TLE_LINE1":"1 46152U 20057AM  22002.23973173  .00000580  00000-0  57883-4 0  9991","SITE":"AFETR","CENTER_NAME":"EARTH","RCS_SIZE":"LARGE","OBJECT_NAME":"STARLINK-1634","FILE":"3255248","GP_ID":"192916486"},{"TLE_LINE2":"2 46153  53.0558 313.4587 0001799  55.7669 304.3490 15.06399349 76120","APOAPSIS":"548.461","INCLINATION":"53.0558","MEAN_MOTION":"15.06399349","ARG_OF_PERICENTER":"55.7669","REV_AT_EPOCH":"7612","MEAN_MOTION_DDOT":"0.0000000000000","CLASSIFICATION_TYPE":"U","COUNTRY_CODE":"US","TLE_LINE1":"1 46153U 20057AN  22002.27474163  .00001049  00000-0  89299-4 0  9998","SITE":"AFETR","LAUNCH_DATE":"2020-08-18","MEAN_ANOMALY":"304.3490","MEAN_ELEMENT_THEORY":"SGP4","OBJECT_NAME":"STARLINK-1636","FILE":"3255248","GP_ID":"192917236","CENTER_NAME":"EARTH","RCS_SIZE":"LARGE","OBJECT_TYPE":"PAYLOAD","PERIAPSIS":"545.970","ELEMENT_SET_NO":"999","ECCENTRICITY":"0.00017990","MEAN_MOTION_DOT":"0.00001049","BSTAR":"0.00008929900000","DECAY_DATE":null,"EPOCH":"2022-01-02T06:35:37.676832","OBJECT_ID":"2020-057AN","SEMIMAJOR_AXIS":"6925.351","PERIOD":"95.592","RA_OF_ASC_NODE":"313.4587","TIME_SYSTEM":"UTC","EPHEMERIS_TYPE":"0","REF_FRAME":"TEME","NORAD_CAT_ID":"46153"},{"EPHEMERIS_TYPE":"0","REF_FRAME":"TEME","NORAD_CAT_ID":"46154","OBJECT_ID":"2020-057AP","PERIOD":"95.592","SEMIMAJOR_AXIS":"6925.348","RA_OF_ASC_NODE":"324.0069","TIME_SYSTEM":"UTC","DECAY_DATE":null,"EPOCH":"2022-01-02T03:39:09.174528","ECCENTRICITY":"0.00018330","MEAN_MOTION_DOT":"0.00003855","BSTAR":"0.00027756000000","ELEMENT_SET_NO":"999","OBJECT_TYPE":"PAYLOAD","PERIAPSIS":"545.944","CENTER_NAME":"EARTH","RCS_SIZE":"LARGE","OBJECT_NAME":"STARLINK-1642","GP_ID":"192917488","FILE":"3255248","LAUNCH_DATE":"2020-08-18","MEAN_ELEMENT_THEORY":"SGP4","MEAN_ANOMALY":"301.1738","TLE_LINE1":"1 46154U 20057AP  22002.15218952  .00003855  00000-0  27756-3 0  9994","SITE":"AFETR","CLASSIFICATION_TYPE":"U","COUNTRY_CODE":"US","ARG_OF_PERICENTER":"58.9430","REV_AT_EPOCH":"7597","MEAN_MOTION_DDOT":"0.0000000000000","INCLINATION":"53.0548","MEAN_MOTION":"15.06400142","TLE_LINE2":"2 46154  53.0548 324.0069 0001833  58.9430 301.1738 15.06400142 75979","APOAPSIS":"548.483"},{"LAUNCH_DATE":"2020-08-18","MEAN_ANOMALY":"305.8264","MEAN_ELEMENT_THEORY":"SGP4","SITE":"AFETR","TLE_LINE1":"1 46155U 20057AQ  22002.30976290  .00001000  00000-0  86025-4 0  9993","RCS_SIZE":"LARGE","CENTER_NAME":"EARTH","FILE":"3255248","GP_ID":"192918238","OBJECT_NAME":"STARLINK-1667","MEAN_MOTION":"15.06396455","INCLINATION":"53.0540","APOAPSIS":"548.585","TLE_LINE2":"2 46155  53.0540 293.2905 0001964  54.2908 305.8264 15.06396455 77655","COUNTRY_CODE":"US","CLASSIFICATION_TYPE":"U","MEAN_MOTION_DDOT":"0.0000000000000","ARG_OF_PERICENTER":"54.2908","REV_AT_EPOCH":"7765","PERIOD":"95.592","SEMIMAJOR_AXIS":"6925.359","RA_OF_ASC_NODE":"293.2905","TIME_SYSTEM":"UTC","OBJECT_ID":"2020-057AQ","EPOCH":"2022-01-02T07:26:03.514560","DECAY_DATE":null,"REF_FRAME":"TEME","NORAD_CAT_ID":"46155","EPHEMERIS_TYPE":"0","ELEMENT_SET_NO":"999","PERIAPSIS":"545.864","OBJECT_TYPE":"PAYLOAD","MEAN_MOTION_DOT":"0.00001000","BSTAR":"0.00008602500000","ECCENTRICITY":"0.00019640"}];
